IRIDIUM 155             
1 43573U 18061E   24041.58622934  .00000232  00000+0  75604-4 0  9990
2 43573  86.3924  55.0848 0001975  87.6656 272.4766 14.34218809290449
IRIDIUM 154             
1 43574U 18061F   24042.12535230  .00000055  00000+0  12558-4 0  9996
2 43574  86.3929  54.9507 0002401  87.9865 272.1606 14.34217853290566
IRIDIUM 163             
1 43575U 18061G   24041.54818188  .00000310  00000+0  10367-3 0  9997
2 43575  86.3926  55.1345 0002269  88.7578 271.3878 14.34218355290457
IRIDIUM 156             
1 43576U 18061H   24041.94140754 -.00000146  00000+0 -59276-4 0  9991
2 43576  86.3922  54.9761 0002004  96.1529 263.9895 14.34214178290500
IRIDIUM 164             
1 43577U 18061J   24042.13169411  .00000011  00000+0 -29688-5 0  9990
2 43577  86.3925  54.9233 0002254  95.6527 264.4926 14.34216933290576
IRIDIUM 159             
1 43578U 18061K   24041.96044280  .00000078  00000+0  20878-4 0  9990
2 43578  86.3925  54.9499 0002283  87.9730 272.1727 14.34216873290515
IRIDIUM 180             
1 43922U 19002A   24041.89017217 -.00000067  00000+0 -31093-4 0  9992
2 43922  86.4008 351.8739 0002149  86.8112 273.3329 14.34216217266112
IRIDIUM 176             
1 43923U 19002B   24041.88229014  .00002307  00000+0  36197-3 0  9998
2 43923  86.6140 351.9059 0002400  89.3764 270.7728 14.72253071273112
IRIDIUM 168             
1 43924U 19002C   24041.95359714  .00000771  00000+0  26820-3 0  9993
2 43924  86.4016 351.9004 0002230  85.6589 274.4861 14.34219203266105
IRIDIUM 173             
1 43925U 19002D   24041.94090828  .00000444  00000+0  15161-3 0  9994
2 43925  86.4011 351.8300 0002168  84.1739 275.9704 14.34220375266081
IRIDIUM 169             
1 43926U 19002E   24041.90783355  .00000863  00000+0  27567-3 0  9993
2 43926  86.4232  23.4380 0001013 343.5145  16.6020 14.38614034266970
IRIDIUM 172             
1 43927U 19002F   24041.93456042  .00000593  00000+0  20471-3 0  9994
2 43927  86.4011 351.8375 0002257  87.9194 272.2260 14.34216856266097
IRIDIUM 175             
1 43928U 19002G   24041.87636275  .00002362  00000+0  37057-3 0  9990
2 43928  86.1550 332.2598 0002303  83.0146 277.1332 14.72246675273107
IRIDIUM 171             
1 43929U 19002H   24041.91554238  .00000063  00000+0  15568-4 0  9994
2 43929  86.4022 352.0566 0002235  90.5560 269.5892 14.34217529266086
IRIDIUM 170             
1 43930U 19002J   24041.88846849  .00002330  00000+0  36555-3 0  9991
2 43930  86.6140 351.9082 0002307  88.2630 271.8851 14.72250694273120
IRIDIUM 167             
1 43931U 19002K   24041.90919755  .00000585  00000+0  20193-3 0  9993
2 43931  86.4011 351.8630 0002254  88.6054 271.5400 14.34219220266081
IRIDIUM 181             
1 56726U 23068S   24042.04992454  .00000427  00000+0  12032-3 0  9997
2 56726  86.8611  39.3403 0002338 105.3141 254.8319 14.43577783 38799
IRIDIUM 177             
1 56727U 23068T   24041.93136497  .00003662  00000+0  47832-3 0  9992
2 56727  86.1991  15.7589 0002459  91.6640 268.4862 14.80237000 39557
IRIDIUM 174             
1 56728U 23068U   24041.99352413  .00003735  00000+0  48796-3 0  9998
2 56728  86.1999  15.8228 0002375  91.6811 268.4682 14.80237992 39565
IRIDIUM 178             
1 56729U 23068V   24041.92075356  .00003653  00000+0  47715-3 0  9999
2 56729  86.5778  27.2827 0002705  92.6935 267.4597 14.80241169 39556
IRIDIUM 179             
1 56730U 23068W   24041.98301281  .00003555  00000+0  46430-3 0  9990
2 56730  86.6786  29.7864 0002497  95.0419 265.1087 14.80240066 39563
